{
  "norad_id": 56134,
  "name": "STARLINK-5564",
  "history": [
    {
      "epoch": "2026-03-28T13:56:16.273824",
      "apogee_km": 485.9469024081318,
      "perigee_km": 485.1699320868993,
      "latitude_deg": -33.13339802936767,
      "longitude_deg": -150.84858464007266,
      "semi_major_axis_km": 6863.695417247515,
      "eccentricity": 5.66e-05,
      "inclination_deg": 43.0022,
      "raan_deg": 39.9231,
      "arg_perigee_deg": 280.8374,
      "mean_anomaly_deg": 79.2413,
      "mean_motion_rev_day": 15.26742367
    }
  ]
}